NORAD_CAT_ID,OBJECT_NAME,OBJECT_TYPE,EPOCH,MEAN_MOTION,ECCENTRICITY,INCLINATION,RA_OF_ASC_NODE,ARG_OF_PERICENTER,MEAN_ANOMALY,BSTAR,MEAN_MOTION_DOT,MEAN_MOTION_DDOT,TLE_LINE0,TLE_LINE1,TLE_LINE2,SEMIMAJOR_AXIS,PERIOD,APOGEE,PERIGEE,DECAYED
53161.0,STARLINK-4055,PAYLOAD,2022-08-27 22:00:00,15.72200793,0.0002844,53.2175,202.3051,10.0026,283.6697,-0.0087088,-0.0105435,0.0,0 STARLINK-4055,1 53161U 22083AF  22239.91667824 -.01054350  00000-0 -87088-2 0  9995,2 53161  53.2175 202.3051 0002844  10.0026 283.6697 15.72200793  1302,6730.745,91.591,354.525,350.696,0.0
53161.0,STARLINK-4055,PAYLOAD,2022-08-28 14:00:01,15.70689626,0.0002907,53.2175,199.0205,344.2189,123.0578,-0.0094156,-0.01067491,0.0,0 STARLINK-4055,1 53161U 22083AF  22240.58334491 -.01067491  00000-0 -94156-2 0  9995,2 53161  53.2175 199.0205 0002907 344.2189 123.0578 15.70689626  7267,6735.062,91.679,358.885,354.969,0.0
53161.0,STARLINK-4055,PAYLOAD,2022-08-28 22:00:00,15.69921494,0.0003306,53.2177,197.3799,4.1981,188.5162,-0.0095685,-0.01052198,0.0,0 STARLINK-4055,1 53161U 22083AF  22240.91667824 -.01052198  00000-0 -95685-2 0  9997,2 53161  53.2177 197.3799 0003306   4.1981 188.5162 15.69921494  1308,6737.259,91.724,361.351,356.896,0.0
53161.0,STARLINK-4055,PAYLOAD,2022-08-29 14:00:01,15.68401241,7.209999999999999e-05,53.2175,194.106,73.8273,287.0195,-0.01018,-0.01049819,0.0,0 STARLINK-4055,1 53161U 22083AF  22241.58334491 -.01049819  00000-0 -10180-1 0  9994,2 53161  53.2175 194.1060 0000721  73.8273 287.0195 15.68401241  7418,6741.611999999999,91.813,363.963,362.99,0.0
53161.0,STARLINK-4055,PAYLOAD,2022-08-29 22:00:00,15.6764176,0.000118,53.2176,192.4712,62.924,20.6189,-0.010498,-0.01049434,0.0,0 STARLINK-4055,1 53161U 22083AF  22241.91667824 -.01049434  00000-0 -10498-1 0  9995,2 53161  53.2176 192.4712 0001180  62.9240  20.6189 15.67641760  1304,6743.7890000000025,91.858,366.45,364.858,0.0
53161.0,STARLINK-4055,PAYLOAD,2022-08-30 06:00:00,15.66881394,0.0001249,53.2175,190.8408,74.7745,90.5515,-0.010808,-0.01047515,0.0,0 STARLINK-4055,1 53161U 22083AF  22242.25001157 -.01047515  00000-0 -10808-1 0  9997,2 53161  53.2175 190.8408 0001249  74.7745  90.5515 15.66881394  7521,6745.97,91.902,368.67800000000005,366.99300000000005,0.0
53161.0,STARLINK-4055,PAYLOAD,2022-08-30 14:00:01,15.66124851,0.0001135,53.2174,189.2083,84.6916,161.506,-0.011212,-0.01053037,0.0,0 STARLINK-4055,1 53161U 22083AF  22242.58334491 -.01053037  00000-0 -11212-1 0  9999,2 53161  53.2174 189.2083 0001135  84.6916 161.5060 15.66124851  1307,6748.143,91.947,370.774,369.242,0.0
53161.0,STARLINK-4055,PAYLOAD,2022-08-30 22:00:00,15.65372445,0.0001071,53.2171,187.5773,89.9239,236.2292,-0.01165,-0.01060492,0.0,0 STARLINK-4055,1 53161U 22083AF  22242.91667824 -.01060492  00000-0 -11650-1 0  9994,2 53161  53.2171 187.5773 0001071  89.9239 236.2292 15.65372445  7627,6750.305,91.991,372.893,371.447,0.0
53161.0,STARLINK-4055,PAYLOAD,2022-08-31 14:00:01,15.63843102,0.0001147999999999,53.2176,184.3267,76.9877,46.3494,-0.012208,-0.01046815,0.0,0 STARLINK-4055,1 53161U 22083AF  22243.58334491 -.01046815  00000-0 -12208-1 0  9992,2 53161  53.2176 184.3267 0001148  76.9877  46.3494 15.63843102  1308,6754.705,92.081,377.345,375.795,0.0
53161.0,STARLINK-4055,PAYLOAD,2022-08-31 20:00:01,15.63273975,0.0001133,53.2177,183.1091,79.9459,11.3914,-0.012482,-0.01062649,0.0,0 STARLINK-4055,1 53161U 22083AF  22243.83334491 -.01062649  00000-0 -12482-1 0  9997,2 53161  53.2177 183.1091 0001133  79.9459  11.3914 15.63273975  7775,6756.344,92.114,378.975,377.444,0.0
53161.0,STARLINK-4055,PAYLOAD,2022-08-31 22:00:00,15.63125483,0.0001245,53.2173,182.7019,88.1658,112.37,-0.013249,-0.01115975,0.0,0 STARLINK-4055,1 53161U 22083AF  22243.91667824 -.01115975  00000-0 -13249-1 0  9998,2 53161  53.2173 182.7019 0001245  88.1658 112.3700 15.63125483  1301,6756.772,92.123,379.478,377.796,0.0
53161.0,STARLINK-4055,PAYLOAD,2022-09-01 12:00:00,15.6175828,0.0001185,53.2174,179.8681,87.2479,156.2477,-0.0133289999999999,-0.01068556,0.0,0 STARLINK-4055,1 53161U 22083AF  22244.50001157 -.01068556  00000-0 -13329-1 0  9996,2 53161  53.2174 179.8681 0001185  87.2479 156.2477 15.61758280  7879,6760.715,92.204,383.381,381.779,0.0
53161.0,STARLINK-4055,PAYLOAD,2022-09-01 14:00:01,15.61565696,9.95e-05,53.2175,179.4628,84.4479,267.8779,-0.013368,-0.01064033,0.0,0 STARLINK-4055,1 53161U 22083AF  22244.58335648 -.01064033  00000-0 -13368-1 0  9998,2 53161  53.2175 179.4628 0000995  84.4479 267.8779 15.61565696  1307,6761.271,92.215,383.809,382.463,0.0
53161.0,STARLINK-4055,PAYLOAD,2022-09-01 22:00:00,15.60807292,0.0001088999999999,53.2176,177.8453,77.8314,348.9106,-0.013784,-0.01065178,0.0,0 STARLINK-4055,1 53161U 22083AF  22244.91667824 -.01065178  00000-0 -13784-1 0  9992,2 53161  53.2176 177.8453 0001089  77.8314 348.9106 15.60807292  1300,6763.4609999999975,92.26,386.062,384.589,0.0
53161.0,STARLINK-4055,PAYLOAD,2022-09-02 06:00:00,15.60042337,0.0001192,53.2175,176.2311,79.0348,61.2782,-0.01406,-0.01055792,0.0,0 STARLINK-4055,1 53161U 22083AF  22245.25001157 -.01055792  00000-0 -14060-1 0  9990,2 53161  53.2175 176.2311 0001192  79.0348  61.2782 15.60042337  7998,6765.672,92.305,388.343,386.73,0.0
53161.0,STARLINK-4055,PAYLOAD,2022-09-02 14:00:01,15.59286664,0.0001200999999999,53.2176,174.615,86.2153,126.7549,-0.0145669999999999,-0.01061973,0.0,0 STARLINK-4055,1 53161U 22083AF  22245.58334491 -.01061973  00000-0 -14567-1 0  9996,2 53161  53.2176 174.6150 0001201  86.2153 126.7549 15.59286664  1305,6767.857,92.35,390.535,388.91,0.0
53161.0,STARLINK-4055,PAYLOAD,2022-09-02 20:00:01,15.58717217,0.0001269,53.2177,173.4055,85.26700000000002,91.5968,-0.014877,-0.01061316,0.0,0 STARLINK-4055,1 53161U 22083AF  22245.83334491 -.01061316  00000-0 -14877-1 0  9999,2 53161  53.2177 173.4055 0001269  85.2670  91.5968 15.58717217  8082,6769.505999999999,92.384,392.23,390.512,0.0
53161.0,STARLINK-4055,PAYLOAD,2022-09-02 22:00:01,15.58555405,0.0001125999999999,53.2173,173.00099999999995,98.0125,186.7538,-0.015558,-0.01099194,0.0,0 STARLINK-4055,1 53161U 22083AF  22245.91668981 -.01099194  00000-0 -15558-1 0  9994,2 53161  53.2173 173.0010 0001126  98.0125 186.7538 15.58555405  1301,6769.974,92.393,392.601,391.077,0.0
53161.0,STARLINK-4055,PAYLOAD,2022-09-03 14:00:01,15.57014075,0.0001085999999999,53.2173,169.7827,66.3311,359.1330000000001,-0.016008,-0.01069787,0.0,0 STARLINK-4055,1 53161U 22083AF  22246.58334491 -.01069787  00000-0 -16008-1 0  9990,2 53161  53.2173 169.7827 0001086  66.3311 359.1330 15.57014075  1307,6774.441,92.485,397.042,395.571,0.0
53161.0,STARLINK-4055,PAYLOAD,2022-09-03 22:00:00,15.5632891,0.0001137999999999,53.2172,168.1755,86.9109,47.5194,-0.018016,-0.0116327999999999,0.0,0 STARLINK-4055,1 53161U 22083AF  22246.91667824 -.01163280  00000-0 -18016-1 0  9990,2 53161  53.2172 168.1755 0001138  86.9109  47.5194 15.56328910  1301,6776.429,92.525,399.066,397.523,0.0
53161.0,STARLINK-4055,PAYLOAD,2022-09-04 12:00:00,15.54920647,0.0001231999999999,53.2175,165.3698,82.5503,80.4874,-0.017179,-0.01062551,0.0,0 STARLINK-4055,1 53161U 22083AF  22247.50001157 -.01062551  00000-0 -17179-1 0  9995,2 53161  53.2175 165.3698 0001232  82.5503  80.4874 15.54920647  8349,6780.52,92.609,403.221,401.55,0.0
53161.0,STARLINK-4055,PAYLOAD,2022-09-04 14:00:01,15.54728457,0.0001147999999999,53.2174,164.9687,92.4429,177.3705,-0.017236,-0.01058864,0.0,0 STARLINK-4055,1 53161U 22083AF  22247.58335648 -.01058864  00000-0 -17236-1 0  9994,2 53161  53.2174 164.9687 0001148  92.4429 177.3705 15.54728457  1307,6781.079000000002,92.621,403.723,402.166,0.0
53161.0,STARLINK-4055,PAYLOAD,2022-09-04 20:00:01,15.5415967,0.0001264,53.2175,163.7679,87.4509,142.084,-0.01761,-0.01059375,0.0,0 STARLINK-4055,1 53161U 22083AF  22247.83334491 -.01059375  00000-0 -17610-1 0  9991,2 53161  53.2175 163.7679 0001264  87.4509 142.0840 15.54159670  1302,6782.733,92.655,405.456,403.741,0.0
53161.0,STARLINK-4055,PAYLOAD,2022-09-05 04:00:00,15.53400148,0.0001164,53.2174,162.1698,96.4087,198.7094,-0.018111,-0.01059532,0.0,0 STARLINK-4055,1 53161U 22083AF  22248.16667824 -.01059532  00000-0 -18111-1 0  9999,2 53161  53.2174 162.1698 0001164  96.4087 198.7094 15.53400148  8444,6784.944,92.7,407.599,406.019,0.0
53161.0,STARLINK-4055,PAYLOAD,2022-09-05 14:00:01,15.52449285,0.0001165,53.2174,160.1704,70.9762,34.8407,-0.0187069999999999,-0.01057341,0.0,0 STARLINK-4055,1 53161U 22083AF  22248.58334491 -.01057341  00000-0 -18707-1 0  9993,2 53161  53.2174 160.1704 0001165  70.9762  34.8407 15.52449285  1308,6787.714,92.757,410.37,408.789,0.0
53161.0,STARLINK-4055,PAYLOAD,2022-09-05 20:00:01,15.51881754,0.0001139,53.2175,158.9737,72.5289,351.0204,-0.019152,-0.0106017,0.0,0 STARLINK-4055,1 53161U 22083AF  22248.83334491 -.01060170  00000-0 -19152-1 0  9990,2 53161  53.2175 158.9737 0001139  72.5289 351.0204 15.51881754  8556,6789.369000000002,92.791,412.007,410.461,0.0
53161.0,STARLINK-4055,PAYLOAD,2022-09-05 22:00:00,15.51689941,0.0001269,53.2176,158.5756,73.3387,96.0081,-0.0192199999999999,-0.01056943,0.0,0 STARLINK-4055,1 53161U 22083AF  22248.91667824 -.01056943  00000-0 -19220-1 0  9997,2 53161  53.2176 158.5756 0001269  73.3387  96.0081 15.51689941  1305,6789.929,92.802,412.655,410.932,0.0
53161.0,STARLINK-4055,PAYLOAD,2022-09-06 12:00:00,15.50257932,0.0001004999999999,53.2176,155.7849,71.4472,116.8932,-0.0086657,-0.00470037,0.0,0 STARLINK-4055,1 53161U 22083AF  22249.50001157 -.00470037  00000-0 -86657-2 0  9996,2 53161  53.2176 155.7849 0001005  71.4472 116.8932 15.50257932  8650,6794.109,92.888,416.657,415.292,0.0
53161.0,STARLINK-4055,PAYLOAD,2022-09-06 14:00:01,15.50116385,0.0001034,53.2174,155.3863,77.7342,215.947,-0.0059555,-0.00327379,0.0,0 STARLINK-4055,1 53161U 22083AF  22249.58334491 -.00327379  00000-0 -59555-2 0  9991,2 53161  53.2174 155.3863 0001034  77.7342 215.9470 15.50116385  1306,6794.523,92.896,417.091,415.685,0.0
